QIANFAN-65              
1 62795U 25016L   26020.24390667  .00000210  00000+0  30601-3 0  9995
2 62795  88.9745  99.0800 0012977 224.7696 135.2408 13.50984958 52440
QIANFAN-66              
1 62796U 25016M   26020.27266341  .00000204  00000+0  29720-3 0  9993
2 62796  88.9764  99.0547 0014223 220.6052 139.4040 13.50989792 52491
QIANFAN-67              
1 62797U 25016N   26020.27679065  .00000202  00000+0  29366-3 0  9999
2 62797  88.9755  99.0761 0013977 227.8829 132.1135 13.50994036 52465
QIANFAN-68              
1 62798U 25016P   26020.26855562  .00000185  00000+0  26846-3 0  9997
2 62798  88.9758  99.1236 0014091 226.0229 133.9761 13.50985894 52444
QIANFAN-69              
1 62799U 25016Q   26020.28500466  .00000196  00000+0  28499-3 0  9998
2 62799  88.9737  98.9830 0014792 227.5003 132.4899 13.50986326 52484
QIANFAN-70              
1 62800U 25016R   26020.22746016  .00000203  00000+0  29578-3 0  9996
2 62800  88.9758  99.1356 0014691 217.3868 142.6262 13.50990148 52439
QIANFAN-71              
1 62801U 25016S   26020.22326645  .00000194  00000+0  28236-3 0  9998
2 62801  88.9752  99.1131 0014595 231.4453 128.5391 13.50989492 52431
QIANFAN-72              
1 62802U 25016T   26020.23971476  .00000215  00000+0  31503-3 0  9993
2 62802  88.9742  99.1210 0017657 240.1766 119.7630 13.50989409 52420
